NOAA 1                  
1 04793U 70106A   26063.56624008 -.00000024  00000+0  11407-3 0  9997
2 04793 101.3524 102.8124 0031698 190.9061 337.7085 12.54049214527573
NOAA 2 (ITOS-D)         
1 06235U 72082A   26063.05652454 -.00000033  00000+0  82813-4 0  9995
2 06235 102.0168  80.4458 0003992  15.8167 351.5554 12.53211641441784
NOAA 3                  
1 06920U 73086A   26063.52329617 -.00000038  00000+0  59710-4 0  9990
2 06920 102.2909  76.4514 0006191 318.6513 163.1797 12.40391639368923
NOAA 4                  
1 07529U 74089A   26063.54061512 -.00000048  00000+0 -73023-5 0  9995
2 07529 102.0074  75.2167 0009158  38.5022  83.9511 12.53201532346419
NOAA 5                  
1 09057U 76077A   26063.51911097 -.00000041  00000+0  37256-4 0  9990
2 09057 102.2953  48.9989 0009770 170.0665 308.7234 12.37828226241522
TIROS N                 
1 11060U 78096A   26063.31294851  .00000255  00000+0  14127-3 0  9997
2 11060  98.4638  89.0712 0010429 180.4332 179.6838 14.19335797663873
NOAA 6                  
1 11416U 79057A   26063.53277048  .00000450  00000+0  17207-3 0  9992
2 11416  98.5757  93.7175 0009455 202.4931 157.5841 14.35429324435945
NOAA 7                  
1 12553U 81059A   26063.15649046  .00000098  00000+0  69802-4 0  9996
2 12553  98.8070 131.2541 0011056 203.8107 156.2558 14.17772006309864
NOAA 8                  
1 13923U 83022A   26063.51569024  .00000212  00000+0  10001-3 0  9991
2 13923  98.7374  76.2960 0014382 200.9088 159.1507 14.29764552236119
NOAA 9                  
1 15427U 84123A   26063.50366369  .00000169  00000+0  10747-3 0  9999
2 15427  99.1100  87.6647 0013692 287.4456 196.0247 14.17037042128599
NOAA 10                 
1 16969U 86073A   26063.51238867  .00000251  00000+0  11644-3 0  9998
2 16969  98.6995  56.9156 0011175 305.7192 164.4375 14.29141912 54466
NOAA 11                 
1 19531U 88089A   26063.48626097  .00000091  00000+0  67959-4 0  9990
2 19531  98.6091  12.7023 0010093 235.7614 124.2605 14.15819384932660
NOAA 12                 
1 21263U 91032A   26063.56377242  .00000152  00000+0  80945-4 0  9999
2 21263  98.6147  53.6450 0013206 338.7870  21.2761 14.26715520810047
NOAA 13                 
1 22739U 93050A   26063.48283768  .00000186  00000+0  12132-3 0  9999
2 22739  98.6928  11.3754 0010537  70.4184 289.8126 14.13634393678585
NOAA 14                 
1 23455U 94089A   26063.58959962  .00000095  00000+0  70825-4 0  9998
2 23455  98.5014  38.0470 0010055  30.4058 329.7698 14.14653927608416
NOAA 15                 
1 25338U 98030A   26063.58054709  .00000206  00000+0  10206-3 0  9995
2 25338  98.5167  86.9952 0009164 296.9744  63.0501 14.27110247446377
NOAA 16                 
1 26536U 00055A   26063.57365553  .00000145  00000+0  97945-4 0  9995
2 26536  98.4707  83.3429 0009401 238.3534 121.6724 14.13896556608948
